NORAD_CAT_ID,OBJECT_NAME,OBJECT_TYPE,EPOCH,MEAN_MOTION,ECCENTRICITY,INCLINATION,RA_OF_ASC_NODE,ARG_OF_PERICENTER,MEAN_ANOMALY,BSTAR,MEAN_MOTION_DOT,MEAN_MOTION_DDOT,TLE_LINE0,TLE_LINE1,TLE_LINE2,SEMIMAJOR_AXIS,PERIOD,APOGEE,PERIGEE,DECAYED
55944.0,STARLINK-5926,PAYLOAD,2023-03-22 18:00:00,15.95104573,0.0039426,69.9998,167.7458,162.5158,300.148,-0.002306,-0.00975062,0.00029774,0 STARLINK-5926,1 55944U 23037AG  23081.75001157 -.00975062  29774-3 -23060-2 0  9998,2 55944  69.9998 167.7458 0039426 162.5158 300.1480 15.95104573  1309,6666.16,90.276,314.307,261.743,0.0
55944.0,STARLINK-5926,PAYLOAD,2023-03-22 22:00:00,15.94803719,0.0038319,70.0,167.2597,163.1034,176.2244,-0.0024872,-0.01029348,0.00032806,0 STARLINK-5926,1 55944U 23037AG  23081.91667824 -.01029348  32806-3 -24872-2 0  9995,2 55944  70.0000 167.2597 0038319 163.1034 176.2244 15.94803719  1302,6666.998,90.293,314.411,263.316,0.0
55944.0,STARLINK-5926,PAYLOAD,2023-03-23 01:05:58,15.94460846,0.0038723,69.9968,166.8825,159.6074,200.6692,-0.0020251,-0.00825062,0.00021715,0 STARLINK-5926,1 55944U 23037AG  23082.04581234 -.00825062  21715-3 -20251-2 0  9990,2 55944  69.9968 166.8825 0038723 159.6074 200.6692 15.94460846  1347,6667.954,90.313,315.639,263.999,0.0
55944.0,STARLINK-5926,PAYLOAD,2023-03-24 17:00:11,15.9126946,0.0018274,69.9999,162.0471,173.6718,358.2036,-0.0029931,-0.0097148,0.00028437,0 STARLINK-5926,1 55944U 23037AG  23083.70846065 -.00971480  28437-3 -29931-2 0  9998,2 55944  69.9999 162.0471 0018274 173.6718 358.2036 15.91269460  1603,6676.866,90.494,310.933,286.53,0.0
55944.0,STARLINK-5926,PAYLOAD,2023-03-24 22:00:01,15.90887727,0.0017021,70.0001,161.4425,176.5964,107.6112,-0.0032309,-0.01025774,0.00031327,0 STARLINK-5926,1 55944U 23037AG  23083.91668981 -.01025774  31327-3 -32309-2 0  9992,2 55944  70.0001 161.4425 0017021 176.5964 107.6112 15.90887727  1305,6677.934,90.516,311.166,288.433,0.0
55944.0,STARLINK-5926,PAYLOAD,2023-03-25 06:00:00,15.90235213,0.0012597,70.0,160.4764,187.1663,205.0383,-0.0033492,-0.01022428,0.00030939,0 STARLINK-5926,1 55944U 23037AG  23084.25001157 -.01022428  30939-3 -33492-2 0  9991,2 55944  70.0000 160.4764 0012597 187.1663 205.0383 15.90235213  1698,6679.761,90.553,310.041,293.212,0.0
55944.0,STARLINK-5926,PAYLOAD,2023-03-25 14:00:01,15.8956001,0.0010585,70.0001,159.5119,196.1381,303.3566,-0.0033174,-0.00977041,0.00028259,0 STARLINK-5926,1 55944U 23037AG  23084.58334491 -.00977041  28259-3 -33174-2 0  9995,2 55944  70.0001 159.5119 0010585 196.1381 303.3566 15.89560010  1749,6681.653,90.591,310.59,296.445,0.0
55944.0,STARLINK-5926,PAYLOAD,2023-03-25 22:00:00,15.88932127,0.0008731,69.9999,158.5468,214.3763,31.6093,-0.0036011,-0.01025757,0.00030734,0 STARLINK-5926,1 55944U 23037AG  23084.91667824 -.01025757  30734-3 -36011-2 0  9994,2 55944  69.9999 158.5468 0008731 214.3763  31.6093 15.88932127  1797,6683.413,90.627,311.113,299.442,0.0
55944.0,STARLINK-5926,PAYLOAD,2023-03-26 06:00:00,15.88288416,0.000842,69.9997,157.5838,237.1514,114.548,-0.0037813,-0.01042784,0.00031489,0 STARLINK-5926,1 55944U 23037AG  23085.25001157 -.01042784  31489-3 -37813-2 0  9991,2 55944  69.9997 157.5838 0008420 237.1514 114.5480 15.88288416  1850,6685.218,90.664,312.712,301.454,0.0
55944.0,STARLINK-5926,PAYLOAD,2023-03-26 22:00:01,15.86958553,0.0009128,69.9998,155.66,266.5908,294.2724,-0.003851,-0.00904959,0.0,0 STARLINK-5926,1 55944U 23037AG  23085.91668981 -.00904959  00000-0 -38510-2 0  9995,2 55944  69.9998 155.6600 0009128 266.5908 294.2724 15.86958553  1958,6688.953,90.74,316.923,304.712,0.0
55944.0,STARLINK-5926,PAYLOAD,2023-03-27 14:00:01,15.85667857,0.0007375,69.9999,153.7397,271.6727,135.077,-0.0042103,-0.00924899,0.0,0 STARLINK-5926,1 55944U 23037AG  23086.58334491 -.00924899  00000-0 -42103-2 0  9993,2 55944  69.9999 153.7397 0007375 271.6727 135.0770 15.85667857  1304,6692.582,90.813,319.383,309.511,0.0
55944.0,STARLINK-5926,PAYLOAD,2023-03-27 22:00:00,15.85024224,0.0003866,70.0002,152.7808,273.3712,235.1797,-0.004405,-0.00934196,0.0,0 STARLINK-5926,1 55944U 23037AG  23086.91667824 -.00934196  00000-0 -44050-2 0  9993,2 55944  70.0002 152.7808 0003866 273.3712 235.1797 15.85024224  2118,6694.394,90.85,318.847,313.67,0.0
55944.0,STARLINK-5926,PAYLOAD,2023-03-28 14:00:01,15.83699177,0.0003683,70.0003,150.8663,268.7397,81.0846,-0.004526,-0.00903769,0.0,0 STARLINK-5926,1 55944U 23037AG  23087.58334491 -.00903769  00000-0 -45260-2 0  9994,2 55944  70.0003 150.8663 0003683 268.7397  81.0846 15.83699177  1307,6698.127,90.926,322.459,317.525,0.0
55944.0,STARLINK-5926,PAYLOAD,2023-03-28 22:00:00,15.83061493,0.0003642,70.0,149.9094,278.3025,170.9756,-0.0047899,-0.00925561,0.0,0 STARLINK-5926,1 55944U 23037AG  23087.91667824 -.00925561  00000-0 -47899-2 0  9994,2 55944  70.0000 149.9094 0003642 278.3025 170.9756 15.83061493  1303,6699.926,90.963,324.231,319.351,0.0
55944.0,STARLINK-5926,PAYLOAD,2023-03-29 02:00:01,15.8272268,0.0003669,70.0002,149.4325,275.1885,43.5307,-0.0047618,-0.00907437,0.0,0 STARLINK-5926,1 55944U 23037AG  23088.08334491 -.00907437  00000-0 -47618-2 0  9995,2 55944  70.0002 149.4325 0003669 275.1885  43.5307 15.82722680  2304,6700.882,90.982,325.205,320.288,0.0
55944.0,STARLINK-5926,PAYLOAD,2023-03-29 14:00:01,15.81743105,0.0003578,70.0001,148.0009,268.5867,17.2677,-0.0049707,-0.00904888,0.0,0 STARLINK-5926,1 55944U 23037AG  23088.58334491 -.00904888  00000-0 -49707-2 0  9998,2 55944  70.0001 148.0009 0003578 268.5867  17.2677 15.81743105  1303,6703.648,91.039,327.912,323.115,0.0
55944.0,STARLINK-5926,PAYLOAD,2023-03-29 22:00:00,15.81092172,0.0003759,70.0,147.0477,279.1917,103.7742,-0.0051346,-0.00906729,0.0,0 STARLINK-5926,1 55944U 23037AG  23088.91667824 -.00906729  00000-0 -51346-2 0  9992,2 55944  70.0000 147.0477 0003759 279.1917 103.7742 15.81092172  1300,6705.488,91.076,329.873,324.832,0.0
55944.0,STARLINK-5926,PAYLOAD,2023-03-30 00:00:00,15.80927022,0.0003581,70.0001,146.8093,279.8168,217.3054,-0.0051475,-0.00902427,0.0,0 STARLINK-5926,1 55944U 23037AG  23089.00001157 -.00902427  00000-0 -51475-2 0  9998,2 55944  70.0001 146.8093 0003581 279.8168 217.3054 15.80927022  2444,6705.955,91.086,330.221,325.418,0.0
55944.0,STARLINK-5926,PAYLOAD,2023-03-30 22:00:00,15.79134572,0.0003607,70.0001,144.1932,269.0294,40.5801,-0.0056152,-0.00906249,0.0,0 STARLINK-5926,1 55944U 23037AG  23089.91667824 -.00906249  00000-0 -56152-2 0  9990,2 55944  70.0001 144.1932 0003607 269.0294  40.5801 15.79134572  2597,6711.028,91.189,335.314,330.473,0.0
55944.0,STARLINK-5926,PAYLOAD,2023-03-31 22:00:00,15.77178284,0.000349,70.0001,141.3472,272.5293,316.682,-0.0061336,-0.00906282,0.0,0 STARLINK-5926,1 55944U 23037AG  23090.91667824 -.00906282  00000-0 -61336-2 0  9999,2 55944  70.0001 141.3472 0003490 272.5293 316.6820 15.77178284  2744,6716.577,91.302,340.786,336.098,0.0
55944.0,STARLINK-5926,PAYLOAD,2023-04-01 14:00:01,15.75872072,0.0003657,70.0,139.4547,276.3808,135.3201,-0.0064607,-0.00901456,0.0,0 STARLINK-5926,1 55944U 23037AG  23091.58334491 -.00901456  00000-0 -64607-2 0  9996,2 55944  70.0000 139.4547 0003657 276.3808 135.3201 15.75872072  1307,6720.288,91.378,344.61,339.695,0.0
55944.0,STARLINK-5926,PAYLOAD,2023-04-01 22:00:00,15.75220077,0.0003577,70.0001,138.5094,282.5468,219.2258,-0.0066542,-0.00902105,0.0,0 STARLINK-5926,1 55944U 23037AG  23091.91667824 -.00902105  00000-0 -66542-2 0  9994,2 55944  70.0001 138.5094 0003577 282.5468 219.2258 15.75220077  2900,6722.142,91.416,346.412,341.602,0.0
55944.0,STARLINK-5926,PAYLOAD,2023-04-02 14:00:01,15.73915793,0.0003653,70.0,136.6225,276.4387,43.1296,-0.0070392,-0.0090167,0.0,0 STARLINK-5926,1 55944U 23037AG  23092.58334491 -.00901670  00000-0 -70392-2 0  9993,2 55944  70.0000 136.6225 0003653 276.4387  43.1296 15.73915793  1304,6725.855,91.492,350.177,345.263,0.0
55944.0,STARLINK-5926,PAYLOAD,2023-04-02 22:00:00,15.73258338,0.0003732,70.0004,135.6799,283.3631,123.9325,-0.0071793,-0.00894676,0.0,0 STARLINK-5926,1 55944U 23037AG  23092.91667824 -.00894676  00000-0 -71793-2 0  9992,2 55944  70.0004 135.6799 0003732 283.3631 123.9325 15.73258338  1305,6727.729,91.53,352.105,347.083,0.0
55944.0,STARLINK-5926,PAYLOAD,2023-04-03 14:00:01,15.71966112,0.0003479,69.9997,133.7986,274.1793,306.2136,-0.0077523,-0.00912061,0.0,0 STARLINK-5926,1 55944U 23037AG  23093.58334491 -.00912061  00000-0 -77523-2 0  9993,2 55944  69.9997 133.7986 0003479 274.1793 306.2136 15.71966112  3161,6731.415,91.605,355.622,350.938,0.0
55944.0,STARLINK-5926,PAYLOAD,2023-04-03 22:00:00,15.71304531,0.0003652,69.9999,132.8584,280.795,24.9807,-0.007858,-0.00900293,0.0,0 STARLINK-5926,1 55944U 23037AG  23093.91667824 -.00900293  00000-0 -78580-2 0  9997,2 55944  69.9999 132.8584 0003652 280.7950  24.9807 15.71304531  1302,6733.305,91.644,357.629,352.711,0.0
55944.0,STARLINK-5926,PAYLOAD,2023-04-04 14:00:01,15.69956298,0.0003498,69.9999,130.9826,275.7498,198.4105,-0.00045925,-0.00055148,0.0,0 STARLINK-5926,1 55944U 23037AG  23094.58334491 -.00055148  00000-0 -45925-3 0  9990,2 55944  69.9999 130.9826 0003498 275.7498 198.4105 15.69956298  3321,6737.159,91.722,361.381,356.667,0.0
55944.0,STARLINK-5926,PAYLOAD,2023-04-04 22:00:00,15.69811811,0.0003358,69.9943,130.0374,261.0405,296.5929,0.00091079,0.00110238,0.0,0 STARLINK-5926,1 55944U 23037AG  23094.91667824  .00110238  00000-0  91079-3 0  9997,2 55944  69.9943 130.0374 0003358 261.0405 296.5929 15.69811811  3370,6737.572,91.731,361.7,357.175,0.0
55944.0,STARLINK-5926,PAYLOAD,2023-04-05 06:00:00,15.69893687,0.0003368,69.9966,129.1003,261.2279,19.5909,0.00017669,0.00021059,0.0,0 STARLINK-5926,1 55944U 23037AG  23095.25001157  .00021059  00000-0  17669-3 0  9991,2 55944  69.9966 129.1003 0003368 261.2279  19.5909 15.69893687  3434,6737.338,91.726,361.472,356.934,0.0
